{
  "type": "FeatureCollection",
  "features": [
    {
      "type": "Feature",
      "properties": {
        "norad_id": 30630,
        "name": "FENGYUN 1C DEB",
        "group": "fengyun-1c-debris",
        "lat": 49.2530398110633,
        "lon": -6.37350957725201,
        "alt_km": 804.3416416603704,
        "timestamp": "2025-12-15T15:53:20.129619+00:00",
        "meta_object_name": "FENGYUN 1C DEB",
        "meta_object_id": "1999-025ANM",
        "meta_epoch": "2025-12-14T10:50:22.247232",
        "meta_mean_motion": 14.22385898,
        "meta_eccentricity": 0.00259163,
        "meta_inclination": 99.1728,
        "meta_ra_of_asc_node": 161.5582,
        "meta_arg_of_pericenter": 69.9485,
        "meta_mean_anomaly": 345.1117,
        "meta_ephemeris_type": 0,
        "meta_classification_type": "U",
        "meta_norad_cat_id": 30630,
        "meta_element_set_no": 999,
        "meta_rev_at_epoch": 97237,
        "meta_bstar": 0.0010284797,
        "meta_mean_motion_dot": 2.25e-05,
        "meta_mean_motion_ddot": 0,
        "tle_line1": "1 30630U 99025ANM 25348.45164638  .00002250  00000+0  10285-2 0  9992",
        "tle_line2": "2 30630  99.1728 161.5582 0025916  69.9485 345.1117 14.22385898972372"
      },
      "geometry": {
        "type": "Point",
        "coordinates": [
          -6.37350957725201,
          49.2530398110633
        ]
      }
    },
    {
      "type": "Feature",
      "properties": {
        "norad_id": 30632,
        "name": "FENGYUN 1C DEB",
        "group": "fengyun-1c-debris",
        "lat": 24.523557806247414,
        "lon": 117.14872875517433,
        "alt_km": 690.7594966309262,
        "timestamp": "2025-12-15T15:53:20.129628+00:00",
        "meta_object_name": "FENGYUN 1C DEB",
        "meta_object_id": "1999-025ANP",
        "meta_epoch": "2025-12-14T22:16:26.211360",
        "meta_mean_motion": 14.62841333,
        "meta_eccentricity": 0.00147565,
        "meta_inclination": 98.8237,
        "meta_ra_of_asc_node": 120.4284,
        "meta_arg_of_pericenter": 163.0216,
        "meta_mean_anomaly": 319.0879,
        "meta_ephemeris_type": 0,
        "meta_classification_type": "U",
        "meta_norad_cat_id": 30632,
        "meta_element_set_no": 999,
        "meta_rev_at_epoch": 97723,
        "meta_bstar": 0.0020852564,
        "meta_mean_motion_dot": 0.00010628,
        "meta_mean_motion_ddot": 0,
        "tle_line1": "1 30632U 99025ANP 25348.92808115  .00010628  00000+0  20853-2 0  9991",
        "tle_line2": "2 30632  98.8237 120.4284 0014756 163.0216 319.0879 14.62841333977236"
      },
      "geometry": {
        "type": "Point",
        "coordinates": [
          117.14872875517433,
          24.523557806247414
        ]
      }
    },
    {
      "type": "Feature",
      "properties": {
        "norad_id": 30633,
        "name": "FENGYUN 1C DEB",
        "group": "fengyun-1c-debris",
        "lat": 20.47503941274942,
        "lon": -148.71567159373458,
        "alt_km": 937.0933017479792,
        "timestamp": "2025-12-15T15:53:20.129637+00:00",
        "meta_object_name": "FENGYUN 1C DEB",
        "meta_object_id": "1999-025ANQ",
        "meta_epoch": "2025-12-14T21:17:44.081664",
        "meta_mean_motion": 14.04394269,
        "meta_eccentricity": 0.01301289,
        "meta_inclination": 98.4206,
        "meta_ra_of_asc_node": 213.7362,
        "meta_arg_of_pericenter": 254.1004,
        "meta_mean_anomaly": 170.8786,
        "meta_ephemeris_type": 0,
        "meta_classification_type": "U",
        "meta_norad_cat_id": 30633,
        "meta_element_set_no": 999,
        "meta_rev_at_epoch": 95922,
        "meta_bstar": 0.00063732171,
        "meta_mean_motion_dot": 1.054e-05,
        "meta_mean_motion_ddot": 0,
        "tle_line1": "1 30633U 99025ANQ 25348.88731576  .00001054  00000+0  63732-3 0  9990",
        "tle_line2": "2 30633  98.4206 213.7362 0130128 254.1004 170.8786 14.04394269959227"
      },
      "geometry": {
        "type": "Point",
        "coordinates": [
          -148.71567159373458,
          20.47503941274942
        ]
      }
    },
    {
      "type": "Feature",
      "properties": {
        "norad_id": 30634,
        "name": "FENGYUN 1C DEB",
        "group": "fengyun-1c-debris",
        "lat": 77.26681181709982,
        "lon": -73.8555375131675,
        "alt_km": 766.0378023668964,
        "timestamp": "2025-12-15T15:53:20.129646+00:00",
        "meta_object_name": "FENGYUN 1C DEB",
        "meta_object_id": "1999-025ANR",
        "meta_epoch": "2025-12-14T22:46:00.452640",
        "meta_mean_motion": 14.09728089,
        "meta_eccentricity": 0.01210158,
        "meta_inclination": 99.2925,
        "meta_ra_of_asc_node": 331.8395,
        "meta_arg_of_pericenter": 90.4193,
        "meta_mean_anomaly": 332.3775,
        "meta_ephemeris_type": 0,
        "meta_classification_type": "U",
        "meta_norad_cat_id": 30634,
        "meta_element_set_no": 999,
        "meta_rev_at_epoch": 95648,
        "meta_bstar": 0.0015523259,
        "meta_mean_motion_dot": 2.871e-05,
        "meta_mean_motion_ddot": 0,
        "tle_line1": "1 30634U 99025ANR 25348.94861635  .00002871  00000+0  15523-2 0  9990",
        "tle_line2": "2 30634  99.2925 331.8395 0121015  90.4193 332.3775 14.09728089956482"
      },
      "geometry": {
        "type": "Point",
        "coordinates": [
          -73.8555375131675,
          77.26681181709982
        ]
      }
    },
    {
      "type": "Feature",
      "properties": {
        "norad_id": 30639,
        "name": "FENGYUN 1C DEB",
        "group": "fengyun-1c-debris",
        "lat": -13.228608597425303,
        "lon": 103.90265916474048,
        "alt_km": 774.5845223952047,
        "timestamp": "2025-12-15T15:53:20.129655+00:00",
        "meta_object_name": "FENGYUN 1C DEB",
        "meta_object_id": "1999-025ANW",
        "meta_epoch": "2025-12-14T06:25:17.543424",
        "meta_mean_motion": 14.32365203,
        "meta_eccentricity": 0.00675174,
        "meta_inclination": 99.0171,
        "meta_ra_of_asc_node": 100.314,
        "meta_arg_of_pericenter": 276.796,
        "meta_mean_anomaly": 82.5543,
        "meta_ephemeris_type": 0,
        "meta_classification_type": "U",
        "meta_norad_cat_id": 30639,
        "meta_element_set_no": 999,
        "meta_rev_at_epoch": 96741,
        "meta_bstar": 0.0031686949,
        "meta_mean_motion_dot": 8.745e-05,
        "meta_mean_motion_ddot": 0,
        "tle_line1": "1 30639U 99025ANW 25348.26756416  .00008745  00000+0  31687-2 0  9995",
        "tle_line2": "2 30639  99.0171 100.3140 0067517 276.7960  82.5543 14.32365203967415"
      },
      "geometry": {
        "type": "Point",
        "coordinates": [
          103.90265916474048,
          -13.228608597425303
        ]
      }
    },
    {
      "type": "Feature",
      "properties": {
        "norad_id": 30640,
        "name": "FENGYUN 1C DEB",
        "group": "fengyun-1c-debris",
        "lat": -63.378573507246266,
        "lon": 79.46556290589523,
        "alt_km": 904.3912890263719,
        "timestamp": "2025-12-15T15:53:20.129664+00:00",
        "meta_object_name": "FENGYUN 1C DEB",
        "meta_object_id": "1999-025ANX",
        "meta_epoch": "2025-12-12T03:27:57.055104",
        "meta_mean_motion": 14.14626342,
        "meta_eccentricity": 0.00809036,
        "meta_inclination": 99.057,
        "meta_ra_of_asc_node": 57.3425,
        "meta_arg_of_pericenter": 102.2672,
        "meta_mean_anomaly": 288.9595,
        "meta_ephemeris_type": 0,
        "meta_classification_type": "U",
        "meta_norad_cat_id": 30640,
        "meta_element_set_no": 999,
        "meta_rev_at_epoch": 96437,
        "meta_bstar": 0.00227777,
        "meta_mean_motion_dot": 4.475e-05,
        "meta_mean_motion_ddot": 0,
        "tle_line1": "1 30640U 99025ANX 25346.14441036  .00004475  00000+0  22778-2 0  9998",
        "tle_line2": "2 30640  99.0570  57.3425 0080903 102.2672 288.9595 14.14626342964379"
      },
      "geometry": {
        "type": "Point",
        "coordinates": [
          79.46556290589523,
          -63.378573507246266
        ]
      }
    },
    {
      "type": "Feature",
      "properties": {
        "norad_id": 30641,
        "name": "FENGYUN 1C DEB",
        "group": "fengyun-1c-debris",
        "lat": -21.01857330180473,
        "lon": 100.89408407719598,
        "alt_km": 626.0674241667366,
        "timestamp": "2025-12-15T15:53:20.129674+00:00",
        "meta_object_name": "FENGYUN 1C DEB",
        "meta_object_id": "1999-025ANY",
        "meta_epoch": "2025-12-14T07:11:49.119648",
        "meta_mean_motion": 14.78980816,
        "meta_eccentricity": 0.01362754,
        "meta_inclination": 98.9409,
        "meta_ra_of_asc_node": 282.8489,
        "meta_arg_of_pericenter": 121.7175,
        "meta_mean_anomaly": 29.5463,
        "meta_ephemeris_type": 0,
        "meta_classification_type": "U",
        "meta_norad_cat_id": 30641,
        "meta_element_set_no": 999,
        "meta_rev_at_epoch": 555,
        "meta_bstar": 0.00053266367,
        "meta_mean_motion_dot": 4.531e-05,
        "meta_mean_motion_ddot": 0,
        "tle_line1": "1 30641U 99025ANY 25348.29987407  .00004531  00000+0  53266-3 0  9994",
        "tle_line2": "2 30641  98.9409 282.8489 0136275 121.7175  29.5463 14.78980816  5550"
      },
      "geometry": {
        "type": "Point",
        "coordinates": [
          100.89408407719598,
          -21.01857330180473
        ]
      }
    }
  ]
}